[{"OBJECT_NAME":"STARLINK-4107","OBJECT_ID":"2022-086AX","EPOCH":"2026-03-09T14:03:01.319616","MEAN_MOTION":15.08839066,"ECCENTRICITY":0.0001371,"INCLINATION":53.2173,"RA_OF_ASC_NODE":184.5907,"ARG_OF_PERICENTER":80.5395,"MEAN_ANOMALY":279.5752,"EPHEMERIS_TYPE":0,"CLASSIFICATION_TYPE":"U","NORAD_CAT_ID":53287,"ELEMENT_SET_NO":999,"REV_AT_EPOCH":20117,"BSTAR":3.3589e-5,"MEAN_MOTION_DOT":2.47e-6,"MEAN_MOTION_DDOT":0},{"OBJECT_NAME":"NANOFF A","OBJECT_ID":"2023-185T","EPOCH":"2026-03-09T23:34:34.415328","MEAN_MOTION":15.11542977,"ECCENTRICITY":0.00086783,"INCLINATION":97.5359,"RA_OF_ASC_NODE":137.8345,"ARG_OF_PERICENTER":292.8968,"MEAN_ANOMALY":67.1346,"EPHEMERIS_TYPE":0,"CLASSIFICATION_TYPE":"U","NORAD_CAT_ID":58810,"ELEMENT_SET_NO":999,"REV_AT_EPOCH":11805,"BSTAR":0.00027314844,"MEAN_MOTION_DOT":4.57e-5,"MEAN_MOTION_DDOT":0}]
